[
    {
        "CCSDS_OMM_VERS": "3.0",
        "COMMENT": "GENERATED VIA SPACE-TRACK.ORG API",
        "CREATION_DATE": "2025-04-13T03:46:00",
        "ORIGINATOR": "18 SPCS",
        "OBJECT_NAME": "GALILEO 20 (2C6)",
        "OBJECT_ID": "2017-079B",
        "CENTER_NAME": "EARTH",
        "REF_FRAME": "TEME",
        "TIME_SYSTEM": "UTC",
        "MEAN_ELEMENT_THEORY": "SGP4",
        "EPOCH": "2025-04-12T04:03:22.489920",
        "MEAN_MOTION": "1.70474921",
        "ECCENTRICITY": "0.00019200",
        "INCLINATION": "55.2198",
        "RA_OF_ASC_NODE": "233.3652",
        "ARG_OF_PERICENTER": "284.6953",
        "MEAN_ANOMALY": "75.2304",
        "EPHEMERIS_TYPE": "0",
        "CLASSIFICATION_TYPE": "U",
        "NORAD_CAT_ID": "43056",
        "ELEMENT_SET_NO": "999",
        "REV_AT_EPOCH": "4565",
        "BSTAR": "0.00000000000000",
        "MEAN_MOTION_DOT": "-0.00000022",
        "MEAN_MOTION_DDOT": "0.0000000000000",
        "SEMIMAJOR_AXIS": "29600.213",
        "PERIOD": "844.699",
        "APOAPSIS": "23227.762",
        "PERIAPSIS": "23216.395",
        "OBJECT_TYPE": "PAYLOAD",
        "RCS_SIZE": "LARGE",
        "COUNTRY_CODE": "ESA",
        "LAUNCH_DATE": "2017-12-12",
        "SITE": "FRGUI",
        "DECAY_DATE": null,
        "FILE": "4700252",
        "GP_ID": "285483802",
        "TLE_LINE0": "0 GALILEO 20 (2C6)",
        "TLE_LINE1": "1 43056U 17079B   25102.16901030 -.00000022  00000-0  00000-0 0  9997",
        "TLE_LINE2": "2 43056  55.2198 233.3652 0001920 284.6953  75.2304  1.70474921 45659"
    }
]